FLOCK 2K-47             
1 42854U 17042AF  17345.67964933  .00007872  00000-0  23323-3 0  9994
2 42854  96.9939 246.7252 0012740  72.9214 287.3424 15.35027152 22855
